#aV2024  7 30  0  0  0.00000000     288 DD+AD WGS84 FIT  NGA
## 2325 172800.00000000   300.00000000 60521 0.0000000000000
+   31     2  3  4  5  6  7  8  9 10 11 12 13 14 15 16 17 18
+         19 20 21 22 23 24 25 26 27 28 29 30 31 32  0  0  0
+          0  0  0  0  0  0  0  0  0  0  0  0  0  0  0  0  0
+          0  0  0  0  0  0  0  0  0  0  0  0  0  0  0  0  0
+          0  0  0  0  0  0  0  0  0  0  0  0  0  0  0  0  0
++         2  2  2  2  2  2  2  2  2  2  2  2  2  2  2  2  2
++         2  2  2  2  2  2  2  2  2  2  2  2  2  2  0  0  0
++         0  0  0  0  0  0  0  0  0  0  0  0  0  0  0  0  0
++         0  0  0  0  0  0  0  0  0  0  0  0  0  0  0  0  0
++         0  0  0  0  0  0  0  0  0  0  0  0  0  0  0  0  0
%c cc cc ccc ccc cccc cccc cccc cccc ccccc ccccc ccccc ccccc
%c cc cc ccc ccc cccc cccc cccc cccc ccccc ccccc ccccc ccccc
%f  0.0000000  0.000000000  0.00000000000  0.000000000000000
%f  0.0000000  0.000000000  0.00000000000  0.000000000000000
%i    0    0    0    0      0      0      0      0         0
%i    0    0    0    0      0      0      0      0         0
/*      NGA, ST. LOUIS,MO.                                  
/*   EPHEMERIS COMPUTED FROM 2 DAYS OF DATA                 
/*   EPOCHA v9 SMOOTHER                                     
/*   G2296 IERS2010 SATIGS SATAPC                           
*  2024  7 30  9 10  0.00000000
P  2  14043.683340  -8912.561928  21112.605153   -389.057025                    
V  2   2412.038724  25684.216792   9759.101621      0.075059                    
P  3  23078.903454 -13004.118200   -726.885823    479.614048                    
V  3   1649.833261   1536.166880  32348.070017      0.157127                    
P  4  17607.525785  -4467.664433 -19410.067940    414.109627                    
V  4  19916.363032  14517.650689  14577.642212      0.076151                    
P  5 -22369.699449   2119.122815 -14406.690994   -181.486646                    
V  5  14393.665084 -10823.726213 -24176.987414     -0.012888                    
P  6  -5396.697729 -24066.423895  -9651.409943    130.342149                    
V  6   2289.136136 -12262.910209  29211.944805     -0.235836                    
P  7   6232.745740 -24152.091575  -7893.763775    -60.320273                    
V  7   3156.311676  10959.007633 -29575.543784      0.067855                    
P  8  23840.947025   4195.832650  11296.232419    295.578967                    
V  8  11380.362524   9095.162425 -26705.053536      0.153934                    
P  9   6736.835891 -13747.018522 -21789.643025    293.621184                    
V  9  23862.464965  13603.338968  -1263.006460      0.153127                    
P 10   1768.469625  15430.037503  21703.869413    -79.705169                    
V 10 -24048.475844  12407.584392  -7246.752547     -0.103946                    
P 11 -12529.480537 -13068.616069 -19430.230312   -713.569115                    
V 11   2933.229905 -24544.468074  14535.403337     -0.062047                    
P 12 -24516.152303   9957.527524   1687.055132   -526.370747                    
V 12   1069.863838  -3616.812852  31711.409185     -0.030175                    
P 13 -22305.234449 -13442.847761   5608.450605    667.763015                    
V 13  -4256.799446  -6383.266095 -30791.623150      0.023067                    
P 14   2465.564858 -17424.927947  19872.513939    460.724869                    
V 14  23087.115542 -10341.695278 -12176.758815      0.088172                    
P 15 -24047.612739  -1307.845559  10887.634870    186.853412                    
V 15 -12277.368457  -8437.565887 -26697.658003      0.042962                    
P 16  20942.230133   3464.740963 -16567.780702   -222.523413                    
V 16 -17949.546454   9467.306212 -20700.653307      0.104958                    
P 17  -7428.228793 -19358.572307  16924.511024    666.658550                    
V 17  17956.453790  10509.388542  20571.637397     -0.085541                    
P 18  -6358.383795  24447.516664  -7827.953135   -641.628851                    
V 18  -1975.780687 -10096.862065 -30074.991650     -0.035871                    
P 19 -15457.651142 -19761.688956   9166.242217    517.609069                    
V 19  10590.888059   5470.269563  28725.445190      0.052725                    
P 20 -16121.514018  -5473.534794 -20282.755657    372.218765                    
V 20  19524.579329 -17148.509998 -11004.911187     -0.004002                    
P 21  15278.643232  -1905.324395  22025.964243    105.873692                    
V 21   2395.648520  26916.113942   1709.171449     -0.021354                    
P 22  -5490.032271 -14419.678453  22040.449597    -45.559060                    
V 22  24736.583454 -10801.617833   -633.930819     -0.043533                    
P 23 -11053.962165  18438.753256  15478.858627    285.670421                    
V 23 -17845.914765   8412.386515 -23005.239190      0.087937                    
P 24 -14731.435764   6789.005700  20539.969963   -484.964752                    
V 24  -3060.782897 -27093.506193   7030.277261     -0.011390                    
P 25 -18603.720056  17150.400413  -7963.671401    498.951377                    
V 25 -10002.165282   2132.437883  29450.587730      0.002965                    
P 26  11021.535578  11747.052164 -21297.534878    110.418109                    
V 26 -22270.380973  14873.329364  -2972.706122     -0.072568                    
P 27  23394.517845  12961.023546   1290.320891    -32.200225                    
V 27    431.131393   3110.649201 -31439.699569     -0.007084                    
P 28   5247.565024  25015.463992  -7229.251669   -352.286053                    
V 28  -2574.022259   9187.869807  29964.928412     -0.154074                    
P 29 -11024.004149  10472.227825 -21831.760721   -586.889380                    
V 29 -22262.611393 -16262.305816   3323.949258      0.020469                    
P 30   -942.359762 -26322.321865   2133.726299   -348.942492                    
V 30   3892.622626  -2468.307277 -31195.150991      0.066626                    
P 31  11238.982549  17092.232749 -16949.382741   -226.349558                    
V 31  -3047.901562  21155.872498  19950.630115      0.003327                    
P 32  10502.493255  18973.731803  15682.438414   -609.224708                    
V 32 -17588.241245  -8468.756885  22134.134619      0.023893                    
EOF
